start=new Date('2022-02-26T00:00:00.000Z').valueOf();
sats=[{"TLE_LINE1":"1 47886U 21021AC  22056.70957862  .00007225  00000-0  50326-3 0  9993","PERIAPSIS":"545.973","TLE_LINE2":"2 47886  53.0554  49.0846 0001725  58.0231 302.0926 15.06415068 54111","TIME_SYSTEM":"UTC","MEAN_ANOMALY":"302.0926","ARG_OF_PERICENTER":"58.0231","DECAY_DATE":null,"SITE":"AFETR","CLASSIFICATION_TYPE":"U","PERIOD":"95.591","MEAN_MOTION":"15.06415068","MEAN_ELEMENT_THEORY":"SGP4","OBJECT_TYPE":"PAYLOAD","BSTAR":"0.00050326000000","COUNTRY_CODE":"US","EPHEMERIS_TYPE":"0","REV_AT_EPOCH":"5411","GP_ID":"197032918","EPOCH":"2022-02-25T17:01:47.592768","OBJECT_ID":"2021-021AC","CENTER_NAME":"EARTH","FILE":"3323947","APOAPSIS":"548.362","ELEMENT_SET_NO":"999","INCLINATION":"53.0554","MEAN_MOTION_DOT":"0.00007225","SEMIMAJOR_AXIS":"6925.302","RCS_SIZE":"LARGE","MEAN_MOTION_DDOT":"0.0000000000000","RA_OF_ASC_NODE":"49.0846","LAUNCH_DATE":"2021-03-14","NORAD_CAT_ID":"47886","OBJECT_NAME":"STARLINK-2345","ECCENTRICITY":"0.00017250","REF_FRAME":"TEME"},{"CLASSIFICATION_TYPE":"U","SITE":"AFETR","PERIOD":"95.592","MEAN_ANOMALY":"295.2429","ARG_OF_PERICENTER":"64.8721","DECAY_DATE":null,"TIME_SYSTEM":"UTC","TLE_LINE1":"1 47887U 21021AD  22056.46863634  .00003052  00000-0  22371-3 0  9993","PERIAPSIS":"546.127","TLE_LINE2":"2 47887  53.0532  55.1664 0001555  64.8721 295.2429 15.06403130 54000","RA_OF_ASC_NODE":"55.1664","LAUNCH_DATE":"2021-03-14","NORAD_CAT_ID":"47887","ECCENTRICITY":"0.00015550","OBJECT_NAME":"STARLINK-2346","REF_FRAME":"TEME","FILE":"3322816","APOAPSIS":"548.281","ELEMENT_SET_NO":"999","RCS_SIZE":"LARGE","SEMIMAJOR_AXIS":"6925.339","MEAN_MOTION_DOT":"0.00003052","INCLINATION":"53.0532","MEAN_MOTION_DDOT":"0.0000000000000","GP_ID":"196979021","OBJECT_ID":"2021-021AD","EPOCH":"2022-02-25T11:14:50.179776","CENTER_NAME":"EARTH","MEAN_MOTION":"15.06403130","BSTAR":"0.00022371000000","MEAN_ELEMENT_THEORY":"SGP4","OBJECT_TYPE":"PAYLOAD","REV_AT_EPOCH":"5400","EPHEMERIS_TYPE":"0","COUNTRY_CODE":"US"},{"TLE_LINE1":"1 47888U 21021AE  22056.69072826  .00002438  00000-0  18249-3 0  9990","PERIAPSIS":"545.863","TLE_LINE2":"2 47888  53.0558  44.1657 0001942  57.3489 302.7687 15.06401874 54189","TIME_SYSTEM":"UTC","MEAN_ANOMALY":"302.7687","ARG_OF_PERICENTER":"57.3489","DECAY_DATE":null,"CLASSIFICATION_TYPE":"U","SITE":"AFETR","PERIOD":"95.592","MEAN_MOTION":"15.06401874","BSTAR":"0.00018249000000","MEAN_ELEMENT_THEORY":"SGP4","OBJECT_TYPE":"PAYLOAD","REV_AT_EPOCH":"5418","EPHEMERIS_TYPE":"0","COUNTRY_CODE":"US","GP_ID":"197031922","OBJECT_ID":"2021-021AE","EPOCH":"2022-02-25T16:34:38.921664","CENTER_NAME":"EARTH","FILE":"3323947","APOAPSIS":"548.553","ELEMENT_SET_NO":"999","RCS_SIZE":"LARGE","SEMIMAJOR_AXIS":"6925.343","INCLINATION":"53.0558","MEAN_MOTION_DOT":"0.00002438","MEAN_MOTION_DDOT":"0.0000000000000","RA_OF_ASC_NODE":"44.1657","LAUNCH_DATE":"2021-03-14","NORAD_CAT_ID":"47888","ECCENTRICITY":"0.00019420","OBJECT_NAME":"STARLINK-2348","REF_FRAME":"TEME"},{"MEAN_MOTION_DDOT":"0.0000000000000","SEMIMAJOR_AXIS":"6925.360","RCS_SIZE":"LARGE","INCLINATION":"53.0551","MEAN_MOTION_DOT":"0.00000467","ELEMENT_SET_NO":"999","FILE":"3323947","APOAPSIS":"548.446","REF_FRAME":"TEME","ECCENTRICITY":"0.00017640","OBJECT_NAME":"STARLINK-2349","NORAD_CAT_ID":"47889","LAUNCH_DATE":"2021-03-14","RA_OF_ASC_NODE":"44.1209","REV_AT_EPOCH":"5423","EPHEMERIS_TYPE":"0","COUNTRY_CODE":"US","BSTAR":"0.00005028800000","MEAN_ELEMENT_THEORY":"SGP4","OBJECT_TYPE":"PAYLOAD","MEAN_MOTION":"15.06396365","CENTER_NAME":"EARTH","OBJECT_ID":"2021-021AF","EPOCH":"2022-02-25T16:50:33.707328","GP_ID":"197032172","DECAY_DATE":null,"ARG_OF_PERICENTER":"52.4863","MEAN_ANOMALY":"307.6286","PERIOD":"95.592","CLASSIFICATION_TYPE":"U","SITE":"AFETR","TLE_LINE2":"2 47889  53.0551  44.1209 0001764  52.4863 307.6286 15.06396365 54233","PERIAPSIS":"546.003","TLE_LINE1":"1 47889U 21021AF  22056.70177902  .00000467  00000-0  50288-4 0  9994","TIME_SYSTEM":"UTC"},{"TLE_LINE1":"1 47890U 21021AG  22056.89120604 -.00001190  00000-0 -17895-4 0  9996","TLE_LINE2":"2 47890  53.0571  23.3502 0001064 114.8444 245.2672 15.42154870 53545","PERIAPSIS":"439.027","TIME_SYSTEM":"UTC","ARG_OF_PERICENTER":"114.8444","MEAN_ANOMALY":"245.2672","DECAY_DATE":null,"SITE":"AFETR","CLASSIFICATION_TYPE":"U","PERIOD":"93.376","MEAN_ELEMENT_THEORY":"SGP4","OBJECT_TYPE":"PAYLOAD","BSTAR":"-0.00001789500000","MEAN_MOTION":"15.42154870","EPHEMERIS_TYPE":"0","COUNTRY_CODE":"US","REV_AT_EPOCH":"5354","EPOCH":"2022-02-25T21:23:20.201856","OBJECT_ID":"2021-021AG","GP_ID":"197032419","CENTER_NAME":"EARTH","ELEMENT_SET_NO":"999","APOAPSIS":"440.478","FILE":"3323947","MEAN_MOTION_DDOT":"0.0000000000000","MEAN_MOTION_DOT":"-0.00001190","INCLINATION":"53.0571","RCS_SIZE":"LARGE","SEMIMAJOR_AXIS":"6817.888","NORAD_CAT_ID":"47890","RA_OF_ASC_NODE":"23.3502","LAUNCH_DATE":"2021-03-14","REF_FRAME":"TEME","OBJECT_NAME":"STARLINK-2350","ECCENTRICITY":"0.00010640"},{"MEAN_MOTION_DDOT":"0.0000000000000","SEMIMAJOR_AXIS":"6925.374","RCS_SIZE":"LARGE","INCLINATION":"53.0569","MEAN_MOTION_DOT":"0.00000737","ELEMENT_SET_NO":"999","APOAPSIS":"548.447","FILE":"3323947","REF_FRAME":"TEME","ECCENTRICITY":"0.00017440","OBJECT_NAME":"STARLINK-2351","NORAD_CAT_ID":"47891","RA_OF_ASC_NODE":"53.7926","LAUNCH_DATE":"2021-03-14","REV_AT_EPOCH":"5421","COUNTRY_CODE":"US","EPHEMERIS_TYPE":"0","BSTAR":"0.00006841400000","MEAN_ELEMENT_THEORY":"SGP4","OBJECT_TYPE":"PAYLOAD","MEAN_MOTION":"15.06391561","CENTER_NAME":"EARTH","OBJECT_ID":"2021-021AH","EPOCH":"2022-02-25T18:35:23.864928","GP_ID":"197033174","DECAY_DATE":null,"ARG_OF_PERICENTER":"60.9655","MEAN_ANOMALY":"299.1509","PERIOD":"95.593","CLASSIFICATION_TYPE":"U","SITE":"AFETR","TLE_LINE2":"2 47891  53.0569  53.7926 0001744  60.9655 299.1509 15.06391561 54212","PERIAPSIS":"546.032","TLE_LINE1":"1 47891U 21021AH  22056.77458177  .00000737  00000-0  68414-4 0  9990","TIME_SYSTEM":"UTC"},{"BSTAR":"0.00527700000000","OBJECT_TYPE":"PAYLOAD","MEAN_ELEMENT_THEORY":"SGP4","MEAN_MOTION":"15.13227766","REV_AT_EPOCH":"5406","EPHEMERIS_TYPE":"0","COUNTRY_CODE":"US","OBJECT_ID":"2021-021AJ","EPOCH":"2022-02-25T19:40:56.898336","GP_ID":"197031423","CENTER_NAME":"EARTH","ELEMENT_SET_NO":"999","FILE":"3323947","APOAPSIS":"527.203","MEAN_MOTION_DDOT":"0.0000000000000","RCS_SIZE":"LARGE","SEMIMAJOR_AXIS":"6904.501","INCLINATION":"53.0571","MEAN_MOTION_DOT":"0.00095823","NORAD_CAT_ID":"47892","LAUNCH_DATE":"2021-03-14","RA_OF_ASC_NODE":"53.1773","REF_FRAME":"TEME","ECCENTRICITY":"0.00012120","OBJECT_NAME":"STARLINK-2352","TLE_LINE1":"1 47892U 21021AJ  22056.82010299  .00095823  00000-0  52770-2 0  9992","TLE_LINE2":"2 47892  53.0571  53.1773 0001212  59.4387 300.6724 15.13227766 54068","PERIAPSIS":"525.529","TIME_SYSTEM":"UTC","ARG_OF_PERICENTER":"59.4387","MEAN_ANOMALY":"300.6724","DECAY_DATE":null,"CLASSIFICATION_TYPE":"U","SITE":"AFETR","PERIOD":"95.161"},{"TLE_LINE1":"1 47894U 21021AL  22056.66492460  .00000294  00000-0  38640-4 0  9990","PERIAPSIS":"546.084","TLE_LINE2":"2 47894  53.0556  44.2879 0001629  55.4117 304.7026 15.06400327 54125","TIME_SYSTEM":"UTC","MEAN_ANOMALY":"304.7026","ARG_OF_PERICENTER":"55.4117","DECAY_DATE":null,"SITE":"AFETR","CLASSIFICATION_TYPE":"U","PERIOD":"95.592","MEAN_MOTION":"15.06400327","MEAN_ELEMENT_THEORY":"SGP4","OBJECT_TYPE":"PAYLOAD","BSTAR":"0.00003864000000","COUNTRY_CODE":"US","EPHEMERIS_TYPE":"0","REV_AT_EPOCH":"5412","GP_ID":"197031673","EPOCH":"2022-02-25T15:57:29.485440","OBJECT_ID":"2021-021AL","CENTER_NAME":"EARTH","APOAPSIS":"548.341","FILE":"3323947","ELEMENT_SET_NO":"999","INCLINATION":"53.0556","MEAN_MOTION_DOT":"0.00000294","SEMIMAJOR_AXIS":"6925.348","RCS_SIZE":"LARGE","MEAN_MOTION_DDOT":"0.0000000000000","LAUNCH_DATE":"2021-03-14","RA_OF_ASC_NODE":"44.2879","NORAD_CAT_ID":"47894","ECCENTRICITY":"0.00016290","OBJECT_NAME":"STARLINK-2354","REF_FRAME":"TEME"},{"ARG_OF_PERICENTER":"61.5847","MEAN_ANOMALY":"298.5261","DECAY_DATE":null,"SITE":"AFETR","CLASSIFICATION_TYPE":"U","PERIOD":"95.592","TLE_LINE1":"1 47895U 21021AM  22056.34423814  .00000464  00000-0  50029-4 0  9997","TLE_LINE2":"2 47895  53.0556  45.7355 0001177  61.5847 298.5261 15.06397498 53648","PERIAPSIS":"546.406","TIME_SYSTEM":"UTC","ELEMENT_SET_NO":"999","APOAPSIS":"548.036","FILE":"3321564","MEAN_MOTION_DDOT":"0.0000000000000","INCLINATION":"53.0556","MEAN_MOTION_DOT":"0.00000464","RCS_SIZE":"LARGE","SEMIMAJOR_AXIS":"6925.356","NORAD_CAT_ID":"47895","RA_OF_ASC_NODE":"45.7355","LAUNCH_DATE":"2021-03-14","REF_FRAME":"TEME","ECCENTRICITY":"0.00011770","OBJECT_NAME":"STARLINK-2355","OBJECT_TYPE":"PAYLOAD","MEAN_ELEMENT_THEORY":"SGP4","BSTAR":"0.00005002900000","MEAN_MOTION":"15.06397498","EPHEMERIS_TYPE":"0","COUNTRY_CODE":"US","REV_AT_EPOCH":"5364","EPOCH":"2022-02-25T08:15:42.175296","OBJECT_ID":"2021-021AM","GP_ID":"196932861","CENTER_NAME":"EARTH"},{"GP_ID":"197032675","EPOCH":"2022-02-25T17:39:00.173088","OBJECT_ID":"2021-021AN","CENTER_NAME":"EARTH","MEAN_MOTION":"15.06399157","OBJECT_TYPE":"PAYLOAD","MEAN_ELEMENT_THEORY":"SGP4","BSTAR":"0.00007869300000","EPHEMERIS_TYPE":"0","COUNTRY_CODE":"US","REV_AT_EPOCH":"5392","LAUNCH_DATE":"2021-03-14","RA_OF_ASC_NODE":"58.9739","NORAD_CAT_ID":"47896","ECCENTRICITY":"0.00017380","OBJECT_NAME":"STARLINK-2356","REF_FRAME":"TEME","APOAPSIS":"548.420","FILE":"3323947","ELEMENT_SET_NO":"999","INCLINATION":"53.0567","MEAN_MOTION_DOT":"0.00000891","RCS_SIZE":"LARGE","SEMIMAJOR_AXIS":"6925.351","MEAN_MOTION_DDOT":"0.0000000000000","TIME_SYSTEM":"UTC","TLE_LINE1":"1 47896U 21021AN  22056.73541867  .00000891  00000-0  78693-4 0  9991","PERIAPSIS":"546.013","TLE_LINE2":"2 47896  53.0567  58.9739 0001738  59.0956 301.0203 15.06399157 53920","SITE":"AFETR","CLASSIFICATION_TYPE":"U","PERIOD":"95.592","MEAN_ANOMALY":"301.0203","ARG_OF_PERICENTER":"59.0956","DECAY_DATE":null}];
